NORAD_CAT_ID,OBJECT_NAME,OBJECT_TYPE,EPOCH,MEAN_MOTION,ECCENTRICITY,INCLINATION,RA_OF_ASC_NODE,ARG_OF_PERICENTER,MEAN_ANOMALY,BSTAR,MEAN_MOTION_DOT,MEAN_MOTION_DDOT,TLE_LINE0,TLE_LINE1,TLE_LINE2,SEMIMAJOR_AXIS,PERIOD,APOGEE,PERIGEE,DECAYED
56466.0,STARLINK-6053,PAYLOAD,2024-07-05 20:43:12,14.98331212,0.0003261,69.9987,246.9519,270.2652,89.8133,1.3615e-05,6.9e-07,0.0,0 STARLINK-6053,1 56466U 23064U   24187.86334245  .00000069  00000-0  13615-4 0  9994,2 56466  69.9987 246.9519 0003261 270.2652  89.8133 14.98331212 63600,6950.189,96.107,574.321,569.788,0.0
56466.0,STARLINK-6053,PAYLOAD,2024-07-06 04:43:53,14.98330153,0.0003205,69.9988,246.1104,270.1359,89.9433,-3.5128e-05,-5.12e-06,0.0,0 STARLINK-6053,1 56466U 23064U   24188.19714431 -.00000512  00000-0 -35128-4 0  9998,2 56466  69.9988 246.1104 0003205 270.1359  89.9433 14.98330153 64017,6950.192,96.107,574.285,569.83,0.0
56466.0,STARLINK-6053,PAYLOAD,2024-07-06 14:20:41,14.98329736,0.0003188,69.9989,245.1008,269.3668,90.7126,-3.1763e-05,-4.72e-06,0.0,0 STARLINK-6053,1 56466U 23064U   24188.59770406 -.00000472  00000-0 -31763-4 0  9992,2 56466  69.9989 245.1008 0003188 269.3668  90.7126 14.98329736 63713,6950.194,96.107,574.274,569.843,0.0
56466.0,STARLINK-6053,PAYLOAD,2024-07-06 20:45:13,14.98329352,0.0003184,69.9989,244.4274,269.9127,90.1667,-3.1012e-05,-4.63e-06,0.0,0 STARLINK-6053,1 56466U 23064U   24188.86474422 -.00000463  00000-0 -31012-4 0  9998,2 56466  69.9989 244.4274 0003184 269.9127  90.1667 14.98329352 63754,6950.195,96.107,574.273,569.847,0.0
56466.0,STARLINK-6053,PAYLOAD,2024-07-07 04:45:54,14.9833245,0.0003181,69.9988,243.5856,270.7757,89.3037,-4.9314e-05,-6.81e-06,0.0,0 STARLINK-6053,1 56466U 23064U   24189.19854265 -.00000681  00000-0 -49314-4 0  9998,2 56466  69.9988 243.5856 0003181 270.7757  89.3037 14.98332450 64165,6950.185,96.107,574.261,569.839,0.0
56466.0,STARLINK-6053,PAYLOAD,2024-07-07 12:46:34,14.98330775,0.0003223,69.9987,242.7441,269.6354,90.4436,-6.282e-05,-8.43e-06,0.0,0 STARLINK-6053,1 56466U 23064U   24189.53234360 -.00000843  00000-0 -62820-4 0  9991,2 56466  69.9987 242.7441 0003223 269.6354  90.4436 14.98330775 63851,6950.19,96.107,574.296,569.815,0.0
56466.0,STARLINK-6053,PAYLOAD,2024-07-08 12:48:35,14.98329037,0.0003327,69.9985,240.2191,270.1792,89.8986,3.5241e-05,3.27e-06,0.0,0 STARLINK-6053,1 56466U 23064U   24190.53374223  .00000327  00000-0  35241-4 0  9998,2 56466  69.9985 240.2191 0003327 270.1792  89.8986 14.98329037 64360,6950.196,96.107,574.373,569.749,0.0
56466.0,STARLINK-6053,PAYLOAD,2024-07-08 20:49:15,14.9832873,0.0003357,69.9985,239.3775,270.6103,89.4671,2.1001e-05,1.58e-06,0.0,0 STARLINK-6053,1 56466U 23064U   24190.86754288  .00000158  00000-0  21001-4 0  9998,2 56466  69.9985 239.3775 0003357 270.6103  89.4671 14.98328730 64053,6950.197,96.107,574.395,569.729,0.0
56466.0,STARLINK-6053,PAYLOAD,2024-07-09 12:50:36,14.98331638,0.0003446,69.9984,237.6934,268.3521,91.7243,4.9855e-05,5.02e-06,0.0,0 STARLINK-6053,1 56466U 23064U   24191.53513966  .00000502  00000-0  49855-4 0  9999,2 56466  69.9984 237.6934 0003446 268.3521  91.7243 14.98331638 64510,6950.188,96.107,574.448,569.658,0.0
56466.0,STARLINK-6053,PAYLOAD,2024-07-10 04:51:57,14.98322742,0.0003401,69.9984,236.0104,269.5439,90.5331,-6.5576e-05,-8.75e-06,0.0,0 STARLINK-6053,1 56466U 23064U   24192.20274938 -.00000875  00000-0 -65576-4 0  9990,2 56466  69.9984 236.0104 0003401 269.5439  90.5331 14.98322742 64616,6950.215,96.107,574.444,569.717,0.0
56466.0,STARLINK-6053,PAYLOAD,2024-07-10 12:52:38,14.98320907,0.0003434,69.9987,235.1694,270.2992,89.7773,-7.878e-05,-1.033e-05,0.0,0 STARLINK-6053,1 56466U 23064U   24192.53655255 -.00001033  00000-0 -78780-4 0  9999,2 56466  69.9987 235.1694 0003434 270.2992  89.7773 14.98320907 64309,6950.221,96.108,574.473,569.699,0.0
56466.0,STARLINK-6053,PAYLOAD,2024-07-11 04:53:58,14.98326601,0.0003469,69.9989,233.4863,270.1648,89.9113,-2.1924e-05,-3.55e-06,0.0,0 STARLINK-6053,1 56466U 23064U   24193.20414973 -.00000355  00000-0 -21924-4 0  9998,2 56466  69.9989 233.4863 0003469 270.1648  89.9113 14.98326601 64762,6950.203,96.107,574.479,569.657,0.0
56466.0,STARLINK-6053,PAYLOAD,2024-07-11 12:54:38,14.98329586,0.0003456,69.9989,232.6449,270.0651,90.0112,-1.1102e-05,-2.26e-06,0.0,0 STARLINK-6053,1 56466U 23064U   24193.53794821 -.00000226  00000-0 -11102-4 0  9991,2 56466  69.9989 232.6449 0003456 270.0651  90.0112 14.98329586 64455,6950.194,96.107,574.461,569.657,0.0
56466.0,STARLINK-6053,PAYLOAD,2024-07-12 04:55:59,14.98328101,0.0003548,69.9987,230.9606,271.8484,88.2268,0.00014616,1.651e-05,0.0,0 STARLINK-6053,1 56466U 23064U   24194.20554512  .00001651  00000-0  14616-3 0  9990,2 56466  69.9987 230.9606 0003548 271.8484  88.2268 14.98328101 64918,6950.199,96.107,574.53,569.598,0.0
56466.0,STARLINK-6053,PAYLOAD,2024-07-12 12:56:39,14.98331092,0.0003512,69.9988,230.1191,271.7762,88.2994,0.00016581,1.886e-05,0.0,0 STARLINK-6053,1 56466U 23064U   24194.53934295  .00001886  00000-0  16581-3 0  9999,2 56466  69.9988 230.1191 0003512 271.7762  88.2994 14.98331092 64604,6950.19,96.107,574.495,569.614,0.0
56466.0,STARLINK-6053,PAYLOAD,2024-07-12 19:21:11,14.98332535,0.0003513,69.9989,229.4457,271.7185,88.3572,0.00012906,1.447e-05,0.0,0 STARLINK-6053,1 56466U 23064U   24194.80638254  .00001447  00000-0  12906-3 0  9995,2 56466  69.9989 229.4457 0003513 271.7185  88.3572 14.98332535 64641,6950.185,96.107,574.492,569.608,0.0
56466.0,STARLINK-6053,PAYLOAD,2024-07-13 04:57:59,14.98334517,0.0003521,69.9987,228.4361,270.2556,89.8199,6.2222e-05,6.5e-06,0.0,0 STARLINK-6053,1 56466U 23064U   24195.20694216  .00000650  00000-0  62222-4 0  9992,2 56466  69.9987 228.4361 0003521 270.2556  89.8199 14.98334517 65067,6950.179,96.107,574.491,569.597,0.0
56466.0,STARLINK-6053,PAYLOAD,2024-07-13 11:22:31,14.98335976,0.0003512,69.9987,227.7629,269.5331,90.5426,7.2388e-05,7.71e-06,0.0,0 STARLINK-6053,1 56466U 23064U   24195.47397996  .00000771  00000-0  72388-4 0  9994,2 56466  69.9987 227.7629 0003512 269.5331  90.5426 14.98335976 64744,6950.174,96.107,574.48,569.599,0.0
56466.0,STARLINK-6053,PAYLOAD,2024-07-13 19:23:12,14.98335158,0.0003509,69.9987,226.9212,269.6476,90.4281,3.0141e-05,2.67e-06,0.0,0 STARLINK-6053,1 56466U 23064U   24195.80778032  .00000267  00000-0  30141-4 0  9996,2 56466  69.9987 226.9212 0003509 269.6476  90.4281 14.98335158 64795,6950.177,96.107,574.481,569.603,0.0
56466.0,STARLINK-6053,PAYLOAD,2024-07-14 05:00:00,14.98332485,0.0003424,69.9989,225.9117,269.3116,90.7651,-6.6031e-05,-8.81e-06,0.0,0 STARLINK-6053,1 56466U 23064U   24196.20834366 -.00000881  00000-0 -66031-4 0  9995,2 56466  69.9989 225.9117 0003424 269.3116  90.7651 14.98332485 65216,6950.185,96.107,574.43,569.67,0.0
56466.0,STARLINK-6053,PAYLOAD,2024-07-14 11:24:33,14.98332546,0.0003428,69.9988,225.2384,269.5316,90.545,-5.2397e-05,-7.18e-06,0.0,0 STARLINK-6053,1 56466U 23064U   24196.47538263 -.00000718  00000-0 -52397-4 0  9990,2 56466  69.9988 225.2384 0003428 269.5316  90.5450 14.98332546 64898,6950.185,96.107,574.433,569.667,0.0
56466.0,STARLINK-6053,PAYLOAD,2024-07-14 19:25:13,14.98333473,0.0003482,69.9987,224.3967,270.286,89.79,-3.75e-05,-5.41e-06,0.0,0 STARLINK-6053,1 56466U 23064U   24196.80918069 -.00000541  00000-0 -37500-4 0  9996,2 56466  69.9987 224.3967 0003482 270.2860  89.7900 14.98333473 64943,6950.182,96.107,574.467,569.627,0.0
56466.0,STARLINK-6053,PAYLOAD,2024-07-15 05:02:01,14.98333712,0.0003492,69.9986,223.3867,269.9573,90.1186,-2.5032e-05,-3.92e-06,0.0,0 STARLINK-6053,1 56466U 23064U   24197.20973915 -.00000392  00000-0 -25032-4 0  9993,2 56466  69.9986 223.3867 0003492 269.9573  90.1186 14.98333712 65362,6950.181,96.107,574.473,569.619,0.0
56466.0,STARLINK-6053,PAYLOAD,2024-07-15 11:26:33,14.98334137,0.0003507,69.9986,222.7133,269.6793,90.3964,-1.4191e-05,-2.62e-06,0.0,0 STARLINK-6053,1 56466U 23064U   24197.47677795 -.00000262  00000-0 -14191-4 0  9999,2 56466  69.9986 222.7133 0003507 269.6793  90.3964 14.98334137 65042,6950.18,96.107,574.483,569.608,0.0
56466.0,STARLINK-6053,PAYLOAD,2024-07-15 19:27:14,14.98331963,0.0003499,69.9987,221.8711,269.6217,90.4541,-2.8289e-05,-4.31e-06,0.0,0 STARLINK-6053,1 56466U 23064U   24197.81057882 -.00000431  00000-0 -28289-4 0  9997,2 56466  69.9987 221.8711 0003499 269.6217  90.4541 14.98331963 65097,6950.187,96.107,574.484,569.62,0.0
56466.0,STARLINK-6053,PAYLOAD,2024-07-16 05:04:02,14.98328819,0.0003524,69.9985,220.8609,269.1797,90.8959,4.0396e-05,3.89e-06,0.0,0 STARLINK-6053,1 56466U 23064U   24198.21113859  .00000389  00000-0  40396-4 0  9992,2 56466  69.9985 220.8609 0003524 269.1797  90.8959 14.98328819 65517,6950.197,96.107,574.511,569.612,0.0
56466.0,STARLINK-6053,PAYLOAD,2024-07-16 11:28:34,14.98331628,0.0003537,69.9985,220.1879,269.6123,90.4631,3.4248e-05,3.16e-06,0.0,0 STARLINK-6053,1 56466U 23064U   24198.47817697  .00000316  00000-0  34248-4 0  9990,2 56466  69.9985 220.1879 0003537 269.6123  90.4631 14.98331628 65190,6950.188,96.107,574.511,569.595,0.0
56466.0,STARLINK-6053,PAYLOAD,2024-07-17 05:06:03,14.98329288,0.0003509,69.9986,218.3363,269.5269,90.5488,-4.2573e-07,-9.8e-07,0.0,0 STARLINK-6053,1 56466U 23064U   24199.21253926 -.00000098  00000-0 -42573-6 0  9993,2 56466  69.9986 218.3363 0003509 269.5269  90.5488 14.98329288 65669,6950.195,96.107,574.499,569.621,0.0
56466.0,STARLINK-6053,PAYLOAD,2024-07-17 11:30:35,14.98331566,0.0003508,69.9986,217.663,269.6082,90.4675,1.2723e-05,5.9e-07,0.0,0 STARLINK-6053,1 56466U 23064U   24199.47957769  .00000059  00000-0  12723-4 0  9994,2 56466  69.9986 217.6630 0003508 269.6082  90.4675 14.98331566 65345,6950.188,96.107,574.491,569.615,0.0
56466.0,STARLINK-6053,PAYLOAD,2024-07-18 11:32:36,14.9833202,0.0003432,69.9988,215.1384,269.4589,90.6177,2.9636e-05,2.61e-06,0.0,0 STARLINK-6053,1 56466U 23064U   24200.48097617  .00000261  00000-0  29636-4 0  9991,2 56466  69.9988 215.1384 0003432 269.4589  90.6177 14.98332020 65493,6950.187,96.107,574.437,569.666,0.0
